CCSDS_OMM_VERS = 2.0
CREATION_DATE  = 
ORIGINATOR     = 

OBJECT_NAME    = STARLINK-36074
OBJECT_ID      = 2025-283Y
CENTER_NAME    = EARTH
REF_FRAME      = TEME
TIME_SYSTEM    = UTC
MEAN_ELEMENT_THEORY = SGP/SGP4

EPOCH          = 2025-12-17T14:00:03.000384
MEAN_MOTION    = 15.81162953
ECCENTRICITY   = .00011725
INCLINATION    = 53.1543
RA_OF_ASC_NODE = 49.3435
ARG_OF_PERICENTER = 76.4514
MEAN_ANOMALY   = 163.1689

EPHEMERIS_TYPE = 0
CLASSIFICATION_TYPE = U
NORAD_CAT_ID   = 66900
ELEMENT_SET_NO = 999
REV_AT_EPOCH   = 320
BSTAR          = -.83373051E-2
MEAN_MOTION_DOT = -.1475037E-1
MEAN_MOTION_DDOT = 0

CCSDS_OMM_VERS = 2.0
CREATION_DATE  = 
ORIGINATOR     = 

OBJECT_NAME    = STARLINK-36043
OBJECT_ID      = 2025-283Z
CENTER_NAME    = EARTH
REF_FRAME      = TEME
TIME_SYSTEM    = UTC
MEAN_ELEMENT_THEORY = SGP/SGP4

EPOCH          = 2025-12-17T14:00:03.000384
MEAN_MOTION    = 15.81139128
ECCENTRICITY   = .00010154
INCLINATION    = 53.1544
RA_OF_ASC_NODE = 49.3387
ARG_OF_PERICENTER = 75.8658
MEAN_ANOMALY   = 166.1319

EPHEMERIS_TYPE = 0
CLASSIFICATION_TYPE = U
NORAD_CAT_ID   = 66901
ELEMENT_SET_NO = 999
REV_AT_EPOCH   = 320
BSTAR          = -.84755788E-2
MEAN_MOTION_DOT = -.149502E-1
MEAN_MOTION_DDOT = 0

CCSDS_OMM_VERS = 2.0
CREATION_DATE  = 
ORIGINATOR     = 

OBJECT_NAME    = STARLINK-35983
OBJECT_ID      = 2025-283AA
CENTER_NAME    = EARTH
REF_FRAME      = TEME
TIME_SYSTEM    = UTC
MEAN_ELEMENT_THEORY = SGP/SGP4

EPOCH          = 2025-12-17T14:00:03.000384
MEAN_MOTION    = 15.81073272
ECCENTRICITY   = .00010556
INCLINATION    = 53.1542
RA_OF_ASC_NODE = 49.3332
ARG_OF_PERICENTER = 67.4742
MEAN_ANOMALY   = 177.2257

EPHEMERIS_TYPE = 0
CLASSIFICATION_TYPE = U
NORAD_CAT_ID   = 66902
ELEMENT_SET_NO = 999
REV_AT_EPOCH   = 320
BSTAR          = -.85406241E-2
MEAN_MOTION_DOT = -.1501073E-1
MEAN_MOTION_DDOT = 0

CCSDS_OMM_VERS = 2.0
CREATION_DATE  = 
ORIGINATOR     = 

OBJECT_NAME    = STARLINK-36077
OBJECT_ID      = 2025-283AB
CENTER_NAME    = EARTH
REF_FRAME      = TEME
TIME_SYSTEM    = UTC
MEAN_ELEMENT_THEORY = SGP/SGP4

EPOCH          = 2025-12-17T14:00:03.000384
MEAN_MOTION    = 15.81050327
ECCENTRICITY   = .00010633
INCLINATION    = 53.1546
RA_OF_ASC_NODE = 49.3285
ARG_OF_PERICENTER = 77.9575
MEAN_ANOMALY   = 169.0813

EPHEMERIS_TYPE = 0
CLASSIFICATION_TYPE = U
NORAD_CAT_ID   = 66903
ELEMENT_SET_NO = 999
REV_AT_EPOCH   = 320
BSTAR          = -.86845339E-2
MEAN_MOTION_DOT = -.1521867E-1
MEAN_MOTION_DDOT = 0

CCSDS_OMM_VERS = 2.0
CREATION_DATE  = 
ORIGINATOR     = 

OBJECT_NAME    = STARLINK-36059
OBJECT_ID      = 2025-283AC
CENTER_NAME    = EARTH
REF_FRAME      = TEME
TIME_SYSTEM    = UTC
MEAN_ELEMENT_THEORY = SGP/SGP4

EPOCH          = 2025-12-17T14:00:03.000384
MEAN_MOTION    = 15.81025224
ECCENTRICITY   = .00010319
INCLINATION    = 53.1543
RA_OF_ASC_NODE = 49.3231
ARG_OF_PERICENTER = 70.4487
MEAN_ANOMALY   = 179.0078

EPHEMERIS_TYPE = 0
CLASSIFICATION_TYPE = U
NORAD_CAT_ID   = 66904
ELEMENT_SET_NO = 999
REV_AT_EPOCH   = 320
BSTAR          = -.8931547E-2
MEAN_MOTION_DOT = -.1558131E-1
MEAN_MOTION_DDOT = 0

CCSDS_OMM_VERS = 2.0
CREATION_DATE  = 
ORIGINATOR     = 

OBJECT_NAME    = STARLINK-36075
OBJECT_ID      = 2025-283AD
CENTER_NAME    = EARTH
REF_FRAME      = TEME
TIME_SYSTEM    = UTC
MEAN_ELEMENT_THEORY = SGP/SGP4

EPOCH          = 2025-12-17T14:00:03.000384
MEAN_MOTION    = 15.81014558
ECCENTRICITY   = .00010361
INCLINATION    = 53.1545
RA_OF_ASC_NODE = 49.3187
ARG_OF_PERICENTER = 67.0021
MEAN_ANOMALY   = 184.6678

EPHEMERIS_TYPE = 0
CLASSIFICATION_TYPE = U
NORAD_CAT_ID   = 66905
ELEMENT_SET_NO = 999
REV_AT_EPOCH   = 320
BSTAR          = -.91091352E-2
MEAN_MOTION_DOT = -.1584479E-1
MEAN_MOTION_DDOT = 0

CCSDS_OMM_VERS = 2.0
CREATION_DATE  = 
ORIGINATOR     = 

OBJECT_NAME    = 1998-067XS
OBJECT_ID      = 1998-067XS
CENTER_NAME    = EARTH
REF_FRAME      = TEME
TIME_SYSTEM    = UTC
MEAN_ELEMENT_THEORY = SGP/SGP4

EPOCH          = 2025-12-17T13:30:08.269344
MEAN_MOTION    = 15.50826829
ECCENTRICITY   = .00031669
INCLINATION    = 51.6310
RA_OF_ASC_NODE = 118.4957
ARG_OF_PERICENTER = 225.2923
MEAN_ANOMALY   = 134.7808

EPHEMERIS_TYPE = 0
CLASSIFICATION_TYPE = U
NORAD_CAT_ID   = 66906
ELEMENT_SET_NO = 999
REV_AT_EPOCH   = 236
BSTAR          = .42205849E-3
MEAN_MOTION_DOT = .24423E-3
MEAN_MOTION_DDOT = 0

CCSDS_OMM_VERS = 2.0
CREATION_DATE  = 
ORIGINATOR     = 

OBJECT_NAME    = 1998-067XT
OBJECT_ID      = 1998-067XT
CENTER_NAME    = EARTH
REF_FRAME      = TEME
TIME_SYSTEM    = UTC
MEAN_ELEMENT_THEORY = SGP/SGP4

EPOCH          = 2025-12-17T14:54:10.641600
MEAN_MOTION    = 15.52051532
ECCENTRICITY   = .00040131
INCLINATION    = 51.6305
RA_OF_ASC_NODE = 118.1347
ARG_OF_PERICENTER = 256.0378
MEAN_ANOMALY   = 104.0166

EPHEMERIS_TYPE = 0
CLASSIFICATION_TYPE = U
NORAD_CAT_ID   = 66907
ELEMENT_SET_NO = 999
REV_AT_EPOCH   = 237
BSTAR          = .8696116E-3
MEAN_MOTION_DOT = .53299E-3
MEAN_MOTION_DDOT = 0

CCSDS_OMM_VERS = 2.0
CREATION_DATE  = 
ORIGINATOR     = 

OBJECT_NAME    = 1998-067XU
OBJECT_ID      = 1998-067XU
CENTER_NAME    = EARTH
REF_FRAME      = TEME
TIME_SYSTEM    = UTC
MEAN_ELEMENT_THEORY = SGP/SGP4

EPOCH          = 2025-12-17T13:20:34.724544
MEAN_MOTION    = 15.52141962
ECCENTRICITY   = .0004125
INCLINATION    = 51.6303
RA_OF_ASC_NODE = 118.4505
ARG_OF_PERICENTER = 254.9068
MEAN_ANOMALY   = 105.1466

EPHEMERIS_TYPE = 0
CLASSIFICATION_TYPE = U
NORAD_CAT_ID   = 66908
ELEMENT_SET_NO = 999
REV_AT_EPOCH   = 236
BSTAR          = .86664567E-3
MEAN_MOTION_DOT = .5329E-3
MEAN_MOTION_DDOT = 0

CCSDS_OMM_VERS = 2.0
CREATION_DATE  = 
ORIGINATOR     = 

OBJECT_NAME    = SILVERSAT
OBJECT_ID      = 1998-067XV
CENTER_NAME    = EARTH
REF_FRAME      = TEME
TIME_SYSTEM    = UTC
MEAN_ELEMENT_THEORY = SGP/SGP4

EPOCH          = 2025-12-17T14:52:13.127232
MEAN_MOTION    = 15.52286710
ECCENTRICITY   = .00039762
INCLINATION    = 51.6309
RA_OF_ASC_NODE = 118.1253
ARG_OF_PERICENTER = 257.1224
MEAN_ANOMALY   = 102.9322

EPHEMERIS_TYPE = 0
CLASSIFICATION_TYPE = U
NORAD_CAT_ID   = 66909
ELEMENT_SET_NO = 999
REV_AT_EPOCH   = 237
BSTAR          = .9399615E-3
MEAN_MOTION_DOT = .58177E-3
MEAN_MOTION_DDOT = 0

CCSDS_OMM_VERS = 2.0
CREATION_DATE  = 
ORIGINATOR     = 

OBJECT_NAME    = 1998-067XW
OBJECT_ID      = 1998-067XW
CENTER_NAME    = EARTH
REF_FRAME      = TEME
TIME_SYSTEM    = UTC
MEAN_ELEMENT_THEORY = SGP/SGP4

EPOCH          = 2025-12-17T14:49:41.645568
MEAN_MOTION    = 15.52327753
ECCENTRICITY   = .00045296
INCLINATION    = 51.6302
RA_OF_ASC_NODE = 118.1137
ARG_OF_PERICENTER = 233.5237
MEAN_ANOMALY   = 126.5336

EPHEMERIS_TYPE = 0
CLASSIFICATION_TYPE = U
NORAD_CAT_ID   = 66910
ELEMENT_SET_NO = 999
REV_AT_EPOCH   = 237
BSTAR          = .83127757E-3
MEAN_MOTION_DOT = .51432E-3
MEAN_MOTION_DDOT = 0

CCSDS_OMM_VERS = 2.0
CREATION_DATE  = 
ORIGINATOR     = 

OBJECT_NAME    = 1998-067XX
OBJECT_ID      = 1998-067XX
CENTER_NAME    = EARTH
REF_FRAME      = TEME
TIME_SYSTEM    = UTC
MEAN_ELEMENT_THEORY = SGP/SGP4

EPOCH          = 2025-12-17T14:47:13.814304
MEAN_MOTION    = 15.52703134
ECCENTRICITY   = .00042191
INCLINATION    = 51.6305
RA_OF_ASC_NODE = 118.1027
ARG_OF_PERICENTER = 237.6725
MEAN_ANOMALY   = 122.3857

EPHEMERIS_TYPE = 0
CLASSIFICATION_TYPE = U
NORAD_CAT_ID   = 66911
ELEMENT_SET_NO = 999
REV_AT_EPOCH   = 236
BSTAR          = .97424314E-3
MEAN_MOTION_DOT = .61259E-3
MEAN_MOTION_DDOT = 0

CCSDS_OMM_VERS = 2.0
CREATION_DATE  = 
ORIGINATOR     = 

OBJECT_NAME    = 1998-067XY
OBJECT_ID      = 1998-067XY
CENTER_NAME    = EARTH
REF_FRAME      = TEME
TIME_SYSTEM    = UTC
MEAN_ELEMENT_THEORY = SGP/SGP4

EPOCH          = 2025-12-17T14:57:17.441856
MEAN_MOTION    = 15.51610619
ECCENTRICITY   = .00041707
INCLINATION    = 51.6305
RA_OF_ASC_NODE = 118.1486
ARG_OF_PERICENTER = 250.1115
MEAN_ANOMALY   = 109.9425

EPHEMERIS_TYPE = 0
CLASSIFICATION_TYPE = U
NORAD_CAT_ID   = 66912
ELEMENT_SET_NO = 999
REV_AT_EPOCH   = 236
BSTAR          = .73122967E-3
MEAN_MOTION_DOT = .43985E-3
MEAN_MOTION_DDOT = 0

CCSDS_OMM_VERS = 2.0
CREATION_DATE  = 
ORIGINATOR     = 

OBJECT_NAME    = 2025-284A
OBJECT_ID      = 2025-284A
CENTER_NAME    = EARTH
REF_FRAME      = TEME
TIME_SYSTEM    = UTC
MEAN_ELEMENT_THEORY = SGP/SGP4

EPOCH          = 2025-12-17T14:34:20.155008
MEAN_MOTION    = 15.16449712
ECCENTRICITY   = .00203354
INCLINATION    = 80.4051
RA_OF_ASC_NODE = 123.6045
ARG_OF_PERICENTER = 158.6655
MEAN_ANOMALY   = 201.5424

EPHEMERIS_TYPE = 0
CLASSIFICATION_TYPE = U
NORAD_CAT_ID   = 66913
ELEMENT_SET_NO = 999
REV_AT_EPOCH   = 186
BSTAR          = .42531494E-3
MEAN_MOTION_DOT = .8337E-4
MEAN_MOTION_DDOT = 0

CCSDS_OMM_VERS = 2.0
CREATION_DATE  = 
ORIGINATOR     = 

OBJECT_NAME    = 2025-284B
OBJECT_ID      = 2025-284B
CENTER_NAME    = EARTH
REF_FRAME      = TEME
TIME_SYSTEM    = UTC
MEAN_ELEMENT_THEORY = SGP/SGP4

EPOCH          = 2025-12-16T06:51:11.417184
MEAN_MOTION    = 15.18985981
ECCENTRICITY   = .00081793
INCLINATION    = 80.4045
RA_OF_ASC_NODE = 125.2713
ARG_OF_PERICENTER = 234.9626
MEAN_ANOMALY   = 125.0834

EPHEMERIS_TYPE = 0
CLASSIFICATION_TYPE = U
NORAD_CAT_ID   = 66914
ELEMENT_SET_NO = 999
REV_AT_EPOCH   = 166
BSTAR          = .38444995E-3
MEAN_MOTION_DOT = .8068E-4
MEAN_MOTION_DDOT = 0

